NORAD_CAT_ID,OBJECT_NAME,OBJECT_TYPE,EPOCH,MEAN_MOTION,ECCENTRICITY,INCLINATION,RA_OF_ASC_NODE,ARG_OF_PERICENTER,MEAN_ANOMALY,BSTAR,MEAN_MOTION_DOT,MEAN_MOTION_DDOT,TLE_LINE0,TLE_LINE1,TLE_LINE2,SEMIMAJOR_AXIS,PERIOD,APOGEE,PERIGEE,DECAYED
53622.0,STARLINK-4568,PAYLOAD,2023-09-20 06:00:00,15.08810736,0.0001439,53.2167,320.4464,98.656,269.9719,0.00058862,9.085e-05,0.0,0 STARLINK-4568,1 53622U 22104AL  23263.25001157  .00009085  00000-0  58862-3 0  9998,2 53622  53.2167 320.4464 0001439  98.6560 269.9719 15.08810736 58980,6917.97,95.439,540.83,538.839,0.0
53622.0,STARLINK-4568,PAYLOAD,2023-09-20 14:00:01,15.0879031,0.0001411,53.2165,318.9515,88.9597,291.2297,0.0038884,0.00062056,0.0,0 STARLINK-4568,1 53622U 22104AL  23263.58334491  .00062056  00000-0  38884-2 0  9992,2 53622  53.2165 318.9515 0001411  88.9597 291.2297 15.08790310  5806,6918.032,95.441,540.873,538.921,0.0
53622.0,STARLINK-4568,PAYLOAD,2023-09-20 22:00:00,15.08822989,0.000137,53.2165,317.4534,97.3483,294.4065,0.0014713,0.00023194,0.0,0 STARLINK-4568,1 53622U 22104AL  23263.91667824  .00023194  00000-0  14713-2 0  9993,2 53622  53.2165 317.4534 0001370  97.3483 294.4065 15.08822989  5506,6917.932,95.439,540.745,538.85,0.0
53622.0,STARLINK-4568,PAYLOAD,2023-09-21 10:34:43,15.08840535,0.0001393,53.2171,315.1014,93.5681,266.547,0.00098024,0.00015347,0.0,0 STARLINK-4568,1 53622U 22104AL  23264.44077840  .00015347  00000-0  98024-3 0  9994,2 53622  53.2171 315.1014 0001393  93.5681 266.5470 15.08840535 59162,6917.879,95.438,540.707,538.78,0.0
53622.0,STARLINK-4568,PAYLOAD,2023-09-21 20:07:01,15.08848141,0.0001394,53.2169,313.3173,92.5754,267.5398,0.0007451,0.00011593,0.0,0 STARLINK-4568,1 53622U 22104AL  23264.83821704  .00011593  00000-0  74510-3 0  9996,2 53622  53.2169 313.3173 0001394  92.5754 267.5398 15.08848141 59909,6917.856,95.437,540.685,538.756,0.0
53622.0,STARLINK-4568,PAYLOAD,2023-09-22 04:03:57,15.08849234,0.0001577,53.2179,311.8315,100.8613,259.2556,0.00048603,7.458e-05,0.0,0 STARLINK-4568,1 53622U 22104AL  23265.16941621  .00007458  00000-0  48603-3 0  9993,2 53622  53.2179 311.8315 0001577 100.8613 259.2556 15.08849234 59279,6917.852,95.437,540.808,538.626,0.0
53622.0,STARLINK-4568,PAYLOAD,2023-09-22 12:00:53,15.0884969,0.0001517,53.2172,310.3442,97.0828,263.0336,0.00043275,6.608e-05,0.0,0 STARLINK-4568,1 53622U 22104AL  23265.50061580  .00006608  00000-0  43275-3 0  9994,2 53622  53.2172 310.3442 0001517  97.0828 263.0336 15.08849690 60004,6917.851,95.437,540.765,538.666,0.0
53622.0,STARLINK-4568,PAYLOAD,2023-09-22 19:57:48,15.08850274,0.0001547,53.2172,308.8574,95.3761,264.7408,0.00042522,6.488e-05,0.0,0 STARLINK-4568,1 53622U 22104AL  23265.83181476  .00006488  00000-0  42522-3 0  9997,2 53622  53.2172 308.8574 0001547  95.3761 264.7408 15.08850274 60055,6917.849,95.437,540.784,538.644,0.0
53622.0,STARLINK-4568,PAYLOAD,2023-09-23 10:16:16,15.08861853,0.0001527,53.2165,306.181,95.2032,264.9135,0.00053146,8.185e-05,0.0,0 STARLINK-4568,1 53622U 22104AL  23266.42796726  .00008185  00000-0  53146-3 0  9993,2 53622  53.2165 306.1810 0001527  95.2032 264.9135 15.08861853 60143,6917.814,95.436,540.735,538.622,0.0
53622.0,STARLINK-4568,PAYLOAD,2023-09-24 02:10:07,15.0884941,0.0001747,53.215,303.2066,83.2248,276.8943,0.00015677,2.208e-05,0.0,0 STARLINK-4568,1 53622U 22104AL  23267.09036811  .00002208  00000-0  15677-3 0  9996,2 53622  53.2150 303.2066 0001747  83.2248 276.8943 15.08849410 59566,6917.852,95.437,540.925,538.508,0.0
53622.0,STARLINK-4568,PAYLOAD,2023-09-24 10:07:03,15.08844483,0.0001385,53.2153,301.7186,85.9254,274.1897,7.7211e-05,9.41e-06,0.0,0 STARLINK-4568,1 53622U 22104AL  23267.42156737  .00000941  00000-0  77211-4 0  9998,2 53622  53.2153 301.7186 0001385  85.9254 274.1897 15.08844483 60295,6917.867,95.437,540.69,538.774,0.0
53622.0,STARLINK-4568,PAYLOAD,2023-09-25 08:22:27,15.08860072,0.0001256,53.2145,297.5559,86.1008,274.0127,0.0011661,0.00018329,0.0,0 STARLINK-4568,1 53622U 22104AL  23268.34892720  .00018329  00000-0  11661-2 0  9993,2 53622  53.2145 297.5559 0001256  86.1008 274.0127 15.08860072 59755,6917.819,95.436,540.553,538.815,0.0
53622.0,STARLINK-4568,PAYLOAD,2023-09-25 11:33:13,15.08860637,0.0001284,53.2147,296.961,86.0373,274.0766,0.001026,0.00016088,0.0,0 STARLINK-4568,1 53622U 22104AL  23268.48140591  .00016088  00000-0  10260-2 0  9994,2 53622  53.2147 296.9610 0001284  86.0373 274.0766 15.08860637 60458,6917.817,95.436,540.571,538.794,0.0
53622.0,STARLINK-4568,PAYLOAD,2023-09-26 01:51:41,15.088482,0.0001076,53.2155,294.2851,78.7715,281.3398,0.00051646,7.943e-05,0.0,0 STARLINK-4568,1 53622U 22104AL  23269.07756661  .00007943  00000-0  51646-3 0  9995,2 53622  53.2155 294.2851 0001076  78.7715 281.3398 15.08848200 59869,6917.855,95.437,540.465,538.976,0.0
53622.0,STARLINK-4568,PAYLOAD,2023-09-26 08:13:14,15.08851751,0.0001327,53.2147,293.0947,90.6559,269.4585,0.00047952,7.354e-05,0.0,0 STARLINK-4568,1 53622U 22104AL  23269.34252496  .00007354  00000-0  47952-3 0  9993,2 53622  53.2147 293.0947 0001327  90.6559 269.4585 15.08851751 60582,6917.844,95.437,540.627,538.791,0.0
53622.0,STARLINK-4568,PAYLOAD,2023-09-27 08:04:01,15.0884093,0.0001515,53.2152,288.6362,87.7232,272.3934,-9.4952e-06,-4.39e-06,0.0,0 STARLINK-4568,1 53622U 22104AL  23270.33612851 -.00000439  00000-0 -94952-5 0  9992,2 53622  53.2152 288.6362 0001515  87.7232 272.3934 15.08840930 60053,6917.878,95.437,540.791,538.694,0.0
53622.0,STARLINK-4568,PAYLOAD,2023-09-27 11:14:47,15.08839879,0.0001457,53.2149,288.0401,87.6146,272.5013,7.7169e-05,9.4e-06,0.0,0 STARLINK-4568,1 53622U 22104AL  23270.46860902  .00000940  00000-0  77169-4 0  9993,2 53622  53.2149 288.0401 0001457  87.6146 272.5013 15.08839879 60752,6917.881,95.438,540.754,538.738,0.0
53622.0,STARLINK-4568,PAYLOAD,2023-09-28 01:33:16,15.08824375,0.0001554,53.215,285.3609,93.7632,266.3537,0.0001574,2.217e-05,0.0,0 STARLINK-4568,1 53622U 22104AL  23271.06477886  .00002217  00000-0  15740-3 0  9990,2 53622  53.2150 285.3609 0001554  93.7632 266.3537 15.08824375 60162,6917.928,95.439,540.868,538.718,0.0
53622.0,STARLINK-4568,PAYLOAD,2023-09-28 07:54:50,15.08776978,0.0001839,53.216,284.1713,96.2135,263.9067,0.00086751,0.00013522,0.0,0 STARLINK-4568,1 53622U 22104AL  23271.32975261  .00013522  00000-0  86751-3 0  9990,2 53622  53.2160 284.1713 0001839  96.2135 263.9067 15.08776978 60209,6918.073,95.442,541.21,538.666,0.0
53622.0,STARLINK-4568,PAYLOAD,2023-09-29 01:24:03,15.0883294,0.0001542,53.2155,280.9013,90.6754,269.4415,8.2984e-05,1.033e-05,0.0,0 STARLINK-4568,1 53622U 22104AL  23272.05837861  .00001033  00000-0  82984-4 0  9993,2 53622  53.2155 280.9013 0001542  90.6754 269.4415 15.08832940 60318,6917.902,95.438,540.834,538.7,0.0
53622.0,STARLINK-4568,PAYLOAD,2023-09-29 09:20:59,15.0883751,0.0001548,53.2161,279.4146,90.4889,269.6281,0.00011103,1.479e-05,0.0,0 STARLINK-4568,1 53622U 22104AL  23272.38957657  .00001479  00000-0  11103-3 0  9993,2 53622  53.2161 279.4146 0001548  90.4889 269.6281 15.08837510 61040,6917.888,95.438,540.824,538.682,0.0
53622.0,STARLINK-4568,PAYLOAD,2023-09-30 04:25:37,15.08840882,0.000156,53.217,275.8475,94.0304,266.0866,0.00012412,1.688e-05,0.0,0 STARLINK-4568,1 53622U 22104AL  23273.18445628  .00001688  00000-0  12412-3 0  9998,2 53622  53.2170 275.8475 0001560  94.0304 266.0866 15.08840882 60484,6917.878,95.437,540.822,538.664,0.0
53622.0,STARLINK-4568,PAYLOAD,2023-09-30 09:11:45,15.08849743,0.0001634,53.217,274.9564,99.033,261.0847,0.00014185,1.971e-05,0.0,0 STARLINK-4568,1 53622U 22104AL  23273.38317042  .00001971  00000-0  14185-3 0  9992,2 53622  53.2170 274.9564 0001634  99.0330 261.0847 15.08849743 60512,6917.851,95.437,540.846,538.585,0.0
53622.0,STARLINK-4568,PAYLOAD,2023-09-30 17:08:42,15.08840829,0.0001293,53.2169,273.4686,87.6535,272.4605,0.00012364,1.68e-05,0.0,0 STARLINK-4568,1 53622U 22104AL  23273.71437584  .00001680  00000-0  12364-3 0  9997,2 53622  53.2169 273.4686 0001293  87.6535 272.4605 15.08840829 60569,6917.878,95.438,540.637,538.848,0.0
53622.0,STARLINK-4568,PAYLOAD,2023-10-01 09:02:34,15.08836166,0.0001836,53.2169,270.4953,83.7283,276.3918,5.3878e-05,5.69e-06,0.0,0 STARLINK-4568,1 53622U 22104AL  23274.37678411  .00000569  00000-0  53878-4 0  9997,2 53622  53.2169 270.4953 0001836  83.7283 276.3918 15.08836166 60663,6917.892,95.438,541.027,538.487,0.0
53622.0,STARLINK-4568,PAYLOAD,2023-10-02 07:17:57,15.08848285,0.0001414,53.2157,266.3308,94.5447,265.5706,2.5523e-05,1.18e-06,0.0,0 STARLINK-4568,1 53622U 22104AL  23275.30413572  .00000118  00000-0  25523-4 0  9992,2 53622  53.2157 266.3308 0001414  94.5447 265.5706 15.08848285 60808,6917.855,95.437,540.698,538.742,0.0
53622.0,STARLINK-4568,PAYLOAD,2023-10-02 16:50:16,15.0884659,0.0001452,53.2158,264.547,95.7148,264.4009,3.0428e-05,1.96e-06,0.0,0 STARLINK-4568,1 53622U 22104AL  23275.70157553  .00000196  00000-0  30428-4 0  9996,2 53622  53.2158 264.5470 0001452  95.7148 264.4009 15.08846590 61545,6917.86,95.437,540.73,538.721,0.0
53622.0,STARLINK-4568,PAYLOAD,2023-10-03 08:44:06,15.08851247,0.0001493,53.216,261.5722,106.2789,253.8368,0.00016952,2.412e-05,0.0,0 STARLINK-4568,1 53622U 22104AL  23276.36396943  .00002412  00000-0  16952-3 0  9995,2 53622  53.2160 261.5722 0001493 106.2789 253.8368 15.08851247 60969,6917.846,95.437,540.744,538.678,0.0
53622.0,STARLINK-4568,PAYLOAD,2023-10-03 16:41:04,15.08834178,0.0001833,53.2159,260.0857,95.5293,264.5908,4.8248e-05,4.8e-06,0.0,0 STARLINK-4568,1 53622U 22104AL  23276.69518547  .00000480  00000-0  48248-4 0  9994,2 53622  53.2159 260.0857 0001833  95.5293 264.5908 15.08834178 61018,6917.898,95.438,541.031,538.495,0.0
53622.0,STARLINK-4568,PAYLOAD,2023-10-03 23:02:36,15.08835032,0.0001438,53.2156,258.8963,103.8641,256.2511,1.8435e-05,5e-08,0.0,0 STARLINK-4568,1 53622U 22104AL  23276.96014556  .00000005  00000-0  18435-4 0  9993,2 53622  53.2156 258.8963 0001438 103.8641 256.2511 15.08835032 61736,6917.896,95.438,540.755,538.766,0.0
